STARLINK-30912          
1 58422U 23180W   26068.53218252 -.00001759  00000+0 -54392-4 0  9995
2 58422  43.0033 271.1870 0002016 274.9961  85.0660 15.27584533129278
YAM-7                   
1 60504U 24149AN  26068.71799904  .00009009  00000+0  30984-3 0  9997
2 60504  97.3828 149.4631 0001973 296.5121  63.5918 15.30304554 86835
