[{"OBJECT_NAME":"STARLINK-30912","OBJECT_ID":"2023-180W","EPOCH":"2026-03-09T12:46:20.569728","MEAN_MOTION":15.27584533,"ECCENTRICITY":0.00020168,"INCLINATION":43.0033,"RA_OF_ASC_NODE":271.187,"ARG_OF_PERICENTER":274.9961,"MEAN_ANOMALY":85.066,"EPHEMERIS_TYPE":0,"CLASSIFICATION_TYPE":"U","NORAD_CAT_ID":58422,"ELEMENT_SET_NO":999,"REV_AT_EPOCH":12927,"BSTAR":-5.4391927e-5,"MEAN_MOTION_DOT":-1.759e-5,"MEAN_MOTION_DDOT":0},{"OBJECT_NAME":"YAM-7","OBJECT_ID":"2024-149AN","EPOCH":"2026-03-09T17:13:55.117920","MEAN_MOTION":15.30304554,"ECCENTRICITY":0.00019733,"INCLINATION":97.3828,"RA_OF_ASC_NODE":149.4631,"ARG_OF_PERICENTER":296.5121,"MEAN_ANOMALY":63.5918,"EPHEMERIS_TYPE":0,"CLASSIFICATION_TYPE":"U","NORAD_CAT_ID":60504,"ELEMENT_SET_NO":999,"REV_AT_EPOCH":8683,"BSTAR":0.00030984439,"MEAN_MOTION_DOT":9.009e-5,"MEAN_MOTION_DDOT":0}]
